NORAD_CAT_ID,OBJECT_NAME,OBJECT_TYPE,EPOCH,MEAN_MOTION,ECCENTRICITY,INCLINATION,RA_OF_ASC_NODE,ARG_OF_PERICENTER,MEAN_ANOMALY,BSTAR,MEAN_MOTION_DOT,MEAN_MOTION_DDOT,TLE_LINE0,TLE_LINE1,TLE_LINE2,SEMIMAJOR_AXIS,PERIOD,APOGEE,PERIGEE,DECAYED
53290.0,STARLINK-4149,PAYLOAD,2022-09-08 06:00:00,15.73271395,0.0002524,53.2166,177.0767,26.4397,182.7269,5.2158e-06,1.12e-06,0.0,0 STARLINK-4149,1 53290U 22086BA  22251.25001157  .00000112  00000-0  52158-5 0  9990,2 53290  53.2166 177.0767 0002524  26.4397 182.7269 15.73271395  7828,6727.691999999999,91.529,351.255,347.8590000000001,0.0
53290.0,STARLINK-4149,PAYLOAD,2022-09-08 14:00:01,15.73238288,0.0002251999999999,53.217,175.4251,24.9058,273.2704,0.00040107,0.0005614,0.0,0 STARLINK-4149,1 53290U 22086BA  22251.58334491  .00056140  00000-0  40107-3 0  9997,2 53290  53.2170 175.4251 0002252  24.9058 273.2704 15.73238288  1309,6727.786,91.531,351.166,348.136,0.0
53290.0,STARLINK-4149,PAYLOAD,2022-09-08 22:00:00,15.73301463,0.0002236,53.2172,173.77599999999995,22.5709,4.5994,-0.00074455,-0.00104294,0.0,0 STARLINK-4149,1 53290U 22086BA  22251.91667824 -.00104294  00000-0 -74455-3 0  9992,2 53290  53.2172 173.7760 0002236  22.5709   4.5994 15.73301463  1308,6727.606,91.527,350.975,347.967,0.0
53290.0,STARLINK-4149,PAYLOAD,2022-09-09 04:00:00,15.73239043,0.0002393,53.217,172.5403,20.2371,343.6985,-0.00046283,-0.00065193,0.0,0 STARLINK-4149,1 53290U 22086BA  22252.16667824 -.00065193  00000-0 -46283-3 0  9992,2 53290  53.2170 172.5403 0002393  20.2371 343.6985 15.73239043  7960,6727.784000000002,91.531,351.259,348.039,0.0
53290.0,STARLINK-4149,PAYLOAD,2022-09-09 14:00:01,15.73195689,0.0002165,53.2167,170.4763,26.095,179.0323,3.7592e-05,4.657e-05,0.0,0 STARLINK-4149,1 53290U 22086BA  22252.58334491  .00004657  00000-0  37592-4 0  9999,2 53290  53.2167 170.4763 0002165  26.0950 179.0323 15.73195689  1302,6727.906999999997,91.533,351.22900000000016,348.316,0.0
53290.0,STARLINK-4149,PAYLOAD,2022-09-09 22:00:00,15.73185041,0.0002282,53.2169,168.8276,31.5854,262.4713,9.4176e-05,0.00012608,0.0,0 STARLINK-4149,1 53290U 22086BA  22252.91667824  .00012608  00000-0  94176-4 0  9991,2 53290  53.2169 168.8276 0002282  31.5854 262.4713 15.73185041  1309,6727.938,91.534,351.338,348.26800000000014,0.0
53290.0,STARLINK-4149,PAYLOAD,2022-09-10 14:00:01,15.73172209,0.0002112,53.2172,165.5282,26.266,85.6448,0.00036776,0.00051249,0.0,0 STARLINK-4149,1 53290U 22086BA  22253.58334491  .00051249  00000-0  36776-3 0  9991,2 53290  53.2172 165.5282 0002112  26.2660  85.6448 15.73172209  1304,6727.974,91.535,351.26,348.418,0.0
53290.0,STARLINK-4149,PAYLOAD,2022-09-10 20:00:01,15.732362699999998,0.0002131999999999,53.2174,164.2914,26.1841,62.4,-0.00043153,-0.00060847,0.0,0 STARLINK-4149,1 53290U 22086BA  22253.83334491 -.00060847  00000-0 -43153-3 0  9992,2 53290  53.2174 164.2914 0002132  26.1841  62.4000 15.73236270  8231,6727.792,91.531,351.091,348.222,0.0
53290.0,STARLINK-4149,PAYLOAD,2022-09-10 22:00:00,15.73235197,0.0002176,53.2173,163.8796,24.799,176.0237,-0.0005507999999999,-0.0007734,0.0,0 STARLINK-4149,1 53290U 22086BA  22253.91667824 -.00077340  00000-0 -55080-3 0  9998,2 53290  53.2173 163.8796 0002176  24.7990 176.0237 15.73235197  1302,6727.795,91.531,351.124,348.196,0.0
53290.0,STARLINK-4149,PAYLOAD,2022-09-11 06:00:00,15.73187768,0.0002340999999999,53.2164,162.2271,20.85,268.9085,0.00029372,0.00040783,0.0,0 STARLINK-4149,1 53290U 22086BA  22254.25001157  .00040783  00000-0  29372-3 0  9991,2 53290  53.2164 162.2271 0002341  20.8500 268.9085 15.73187768  8298,6727.93,91.534,351.37,348.22,0.0
53290.0,STARLINK-4149,PAYLOAD,2022-09-11 14:00:01,15.73181659,0.0002126999999999,53.2167,160.5684,28.1823,350.5272,-0.00046656,-0.00065547,0.0,0 STARLINK-4149,1 53290U 22086BA  22254.58334491 -.00065547  00000-0 -46656-3 0  9998,2 53290  53.2167 160.5684 0002127  28.1823 350.5272 15.73181659  8357,6727.946999999999,91.534,351.24300000000005,348.381,0.0
53290.0,STARLINK-4149,PAYLOAD,2022-09-11 22:00:00,15.73176131,0.0002363,53.2172,158.9132,30.719,76.8585,0.00032882,0.00045735,0.0,0 STARLINK-4149,1 53290U 22086BA  22254.91667824  .00045735  00000-0  32882-3 0  9995,2 53290  53.2172 158.9132 0002363  30.7190  76.8585 15.73176131  8400,6727.9630000000025,91.535,351.418,348.23800000000006,0.0
53290.0,STARLINK-4149,PAYLOAD,2022-09-12 06:00:00,15.73202878,0.0002201999999999,53.2164,157.2828,23.2083,173.3981,-0.0001776,-0.00025477,0.0,0 STARLINK-4149,1 53290U 22086BA  22255.25001157 -.00025477  00000-0 -17760-3 0  9995,2 53290  53.2164 157.2828 0002202  23.2083 173.3981 15.73202878  8451,6727.887,91.533,351.233,348.27,0.0
53290.0,STARLINK-4149,PAYLOAD,2022-09-12 14:00:01,15.73141437,0.0001981,53.2167,155.6312,26.2763,259.2631,0.00034635,0.00048147,0.0,0 STARLINK-4149,1 53290U 22086BA  22255.58334491  .00048147  00000-0  34635-3 0  9998,2 53290  53.2167 155.6312 0001981  26.2763 259.2631 15.73141437  1301,6728.062,91.537,351.26,348.594,0.0
53290.0,STARLINK-4149,PAYLOAD,2022-09-12 22:00:00,15.73190272,0.0002092,53.2166,153.983,25.648000000000003,348.7677,0.0002481999999999,0.00034342,0.0,0 STARLINK-4149,1 53290U 22086BA  22255.91667824  .00034342  00000-0  24820-3 0  9991,2 53290  53.2166 153.9830 0002092  25.6480 348.7677 15.73190272  1304,6727.9230000000025,91.534,351.195,348.38,0.0
53290.0,STARLINK-4149,PAYLOAD,2022-09-13 06:00:00,15.73246762,0.0002239,53.216,152.3342,25.2881,78.0515,-0.00026832,-0.00038188,0.0,0 STARLINK-4149,1 53290U 22086BA  22256.25001157 -.00038188  00000-0 -26832-3 0  9999,2 53290  53.2160 152.3342 0002239  25.2881  78.0515 15.73246762  8614,6727.762,91.53,351.1330000000001,348.121,0.0
53290.0,STARLINK-4149,PAYLOAD,2022-09-13 14:00:01,15.73214581,0.0001913,53.2158,150.6827,29.7885,162.5231,-1.7409000000000002e-05,-3.065e-05,0.0,0 STARLINK-4149,1 53290U 22086BA  22256.58334491 -.00003065  00000-0 -17409-4 0  9992,2 53290  53.2158 150.6827 0001913  29.7885 162.5231 15.73214581  1308,6727.854,91.532,351.006,348.432,0.0
53290.0,STARLINK-4149,PAYLOAD,2022-09-13 22:00:00,15.73287151,0.0001915,53.2163,149.0251,30.0331,251.2165,-0.0017968,-0.0024649,0.0,0 STARLINK-4149,1 53290U 22086BA  22256.91667824 -.00246490  00000-0 -17968-2 0  9997,2 53290  53.2163 149.0251 0001915  30.0331 251.2165 15.73287151  1305,6727.647,91.528,350.8,348.223,0.0
53290.0,STARLINK-4149,PAYLOAD,2022-09-14 14:00:01,15.73181929,0.0001935,53.2161,145.7342,32.5127,66.5165,0.00064489,0.00090802,0.0,0 STARLINK-4149,1 53290U 22086BA  22257.58334491  .00090802  00000-0  64489-3 0  9995,2 53290  53.2161 145.7342 0001935  32.5127  66.5165 15.73181929  8826,6727.946999999999,91.534,351.11400000000015,348.51,0.0
53290.0,STARLINK-4149,PAYLOAD,2022-09-14 20:00:01,15.73272223,0.0001994,53.2163,144.4981,30.2963,45.4279,-0.00061963,-0.00086964,0.0,0 STARLINK-4149,1 53290U 22086BA  22257.83334491 -.00086964  00000-0 -61963-3 0  9993,2 53290  53.2163 144.4981 0001994  30.2963  45.4279 15.73272223  8865,6727.689,91.529,350.896,348.213,0.0
53290.0,STARLINK-4149,PAYLOAD,2022-09-14 22:00:00,15.73237658,0.0002076,53.2161,144.0862,28.4383,159.5391,-0.00026038,-0.00037065,0.0,0 STARLINK-4149,1 53290U 22086BA  22257.91667824 -.00037065  00000-0 -26038-3 0  9993,2 53290  53.2161 144.0862 0002076  28.4383 159.5391 15.73237658  1301,6727.788000000001,91.531,351.0490000000001,348.256,0.0
53290.0,STARLINK-4149,PAYLOAD,2022-09-15 06:00:00,15.73266202,0.0002064,53.2155,142.4367,25.2821,251.6423,-0.00037103,-0.00052521,0.0,0 STARLINK-4149,1 53290U 22086BA  22258.25001157 -.00052521  00000-0 -37103-3 0  9991,2 53290  53.2155 142.4367 0002064  25.2821 251.6423 15.73266202  8927,6727.706,91.529,350.96,348.18300000000005,0.0
53290.0,STARLINK-4149,PAYLOAD,2022-09-15 14:00:01,15.73193019,0.0001781999999999,53.2156,140.7853,30.9783,334.944,0.00023433,0.00032384,0.0,0 STARLINK-4149,1 53290U 22086BA  22258.58334491  .00032384  00000-0  23433-3 0  9991,2 53290  53.2156 140.7853 0001782  30.9783 334.9440 15.73193019  1309,6727.915,91.534,350.97900000000016,348.581,0.0
53290.0,STARLINK-4149,PAYLOAD,2022-09-15 22:00:00,15.732193099999998,0.0001933,53.2157,139.1377,27.1025,67.7514,0.00034932,0.00048732,0.0,0 STARLINK-4149,1 53290U 22086BA  22258.91667824  .00048732  00000-0  34932-3 0  9997,2 53290  53.2157 139.1377 0001933  27.1025  67.7514 15.73219310  1304,6727.84,91.532,351.006,348.405,0.0
53290.0,STARLINK-4149,PAYLOAD,2022-09-16 06:00:00,15.73225432,0.0001923,53.2158,137.4882,22.3756,161.4087,-0.00030256,-0.00042916,0.0,0 STARLINK-4149,1 53290U 22086BA  22259.25001157 -.00042916  00000-0 -30256-3 0  9991,2 53290  53.2158 137.4882 0001923  22.3756 161.4087 15.73225432  9086,6727.823,91.532,350.981,348.394,0.0
53290.0,STARLINK-4149,PAYLOAD,2022-09-16 14:00:01,15.73195314,0.0001757,53.2162,135.8367,27.8012,244.9219,-8.8495e-05,-0.00013019,0.0,0 STARLINK-4149,1 53290U 22086BA  22259.58334491 -.00013019  00000-0 -88495-4 0  9998,2 53290  53.2162 135.8367 0001757  27.8012 244.9219 15.73195314  1307,6727.909000000002,91.533,350.956,348.591,0.0
53290.0,STARLINK-4149,PAYLOAD,2022-09-16 22:00:00,15.73173363,0.0002045999999999,53.2163,134.1891,30.4036,331.2305,0.00021061,0.00029007,0.0,0 STARLINK-4149,1 53290U 22086BA  22259.91667824  .00029007  00000-0  21061-3 0  9991,2 53290  53.2163 134.1891 0002046  30.4036 331.2305 15.73173363  1306,6727.971,91.535,351.213,348.46,0.0
53290.0,STARLINK-4149,PAYLOAD,2022-09-17 06:00:00,15.73230588,0.0002012,53.2159,132.5395,27.0276,63.5043,-0.00013871,-0.00020069,0.0,0 STARLINK-4149,1 53290U 22086BA  22260.25001157 -.00020069  00000-0 -13871-3 0  9992,2 53290  53.2159 132.5395 0002012  27.0276  63.5043 15.73230588  9241,6727.808000000001,91.531,351.027,348.319,0.0
53290.0,STARLINK-4149,PAYLOAD,2022-09-17 14:00:01,15.7323459,0.0001894,53.216,130.8884,36.1334,143.3805,-2.1784e-05,-3.682e-05,0.0,0 STARLINK-4149,1 53290U 22086BA  22260.58334491 -.00003682  00000-0 -21784-4 0  9993,2 53290  53.2160 130.8884 0001894  36.1334 143.3805 15.73234590  1309,6727.797,91.531,350.936,348.38699999999994,0.0
